{
  "type": "FeatureCollection",
  "features": [
    {
      "type": "Feature",
      "properties": {
        "norad_id": 35711,
        "name": "COSMOS 2251 DEB",
        "group": "cosmos-2251-debris",
        "lat": -18.189069608501264,
        "lon": -153.97860619891347,
        "alt_km": 633.095575371497,
        "timestamp": "2025-12-17T10:52:54.748885+00:00",
        "meta_object_name": "COSMOS 2251 DEB",
        "meta_object_id": "1993-036AQG",
        "meta_epoch": "2025-12-16T08:43:24.573504",
        "meta_mean_motion": 14.63811457,
        "meta_eccentricity": 0.00855113,
        "meta_inclination": 74.0451,
        "meta_ra_of_asc_node": 213.5058,
        "meta_arg_of_pericenter": 313.6514,
        "meta_mean_anomaly": 45.7584,
        "meta_ephemeris_type": 0,
        "meta_classification_type": "U",
        "meta_norad_cat_id": 35711,
        "meta_element_set_no": 999,
        "meta_rev_at_epoch": 87824,
        "meta_bstar": 0.00016330045,
        "meta_mean_motion_dot": 8.64e-06,
        "meta_mean_motion_ddot": 0,
        "tle_line1": "1 35711U 93036AQG 25350.36347886  .00000864  00000+0  16330-3 0  9991",
        "tle_line2": "2 35711  74.0451 213.5058 0085511 313.6514  45.7584 14.63811457878249"
      },
      "geometry": {
        "type": "Point",
        "coordinates": [
          -153.97860619891347,
          -18.189069608501264
        ]
      }
    },
    {
      "type": "Feature",
      "properties": {
        "norad_id": 35716,
        "name": "COSMOS 2251 DEB",
        "group": "cosmos-2251-debris",
        "lat": -3.2541609397611566,
        "lon": -175.75163151496346,
        "alt_km": 640.3961052038767,
        "timestamp": "2025-12-17T10:52:54.748895+00:00",
        "meta_object_name": "COSMOS 2251 DEB",
        "meta_object_id": "1993-036AQM",
        "meta_epoch": "2025-12-16T22:02:27.255264",
        "meta_mean_motion": 14.60091265,
        "meta_eccentricity": 0.00889114,
        "meta_inclination": 73.992,
        "meta_ra_of_asc_node": 186.2072,
        "meta_arg_of_pericenter": 26.0951,
        "meta_mean_anomaly": 39.9194,
        "meta_ephemeris_type": 0,
        "meta_classification_type": "U",
        "meta_norad_cat_id": 35716,
        "meta_element_set_no": 999,
        "meta_rev_at_epoch": 87688,
        "meta_bstar": 8.2846123e-05,
        "meta_mean_motion_dot": 3.88e-06,
        "meta_mean_motion_ddot": 0,
        "tle_line1": "1 35716U 93036AQM 25350.91837101  .00000388  00000+0  82846-4 0  9998",
        "tle_line2": "2 35716  73.9920 186.2072 0088911  26.0951  39.9194 14.60091265876886"
      },
      "geometry": {
        "type": "Point",
        "coordinates": [
          -175.75163151496346,
          -3.2541609397611566
        ]
      }
    },
    {
      "type": "Feature",
      "properties": {
        "norad_id": 35717,
        "name": "COSMOS 2251 DEB",
        "group": "cosmos-2251-debris",
        "lat": 55.39851331512985,
        "lon": 4.571752930773544,
        "alt_km": 725.1535117109634,
        "timestamp": "2025-12-17T10:52:54.748905+00:00",
        "meta_object_name": "COSMOS 2251 DEB",
        "meta_object_id": "1993-036AQN",
        "meta_epoch": "2025-12-15T21:36:31.335552",
        "meta_mean_motion": 14.38515087,
        "meta_eccentricity": 0.00772191,
        "meta_inclination": 74.1598,
        "meta_ra_of_asc_node": 211.7132,
        "meta_arg_of_pericenter": 70.2705,
        "meta_mean_anomaly": 290.6758,
        "meta_ephemeris_type": 0,
        "meta_classification_type": "U",
        "meta_norad_cat_id": 35717,
        "meta_element_set_no": 999,
        "meta_rev_at_epoch": 74145,
        "meta_bstar": 0.0007891897,
        "meta_mean_motion_dot": 2.473e-05,
        "meta_mean_motion_ddot": 0,
        "tle_line1": "1 35717U 93036AQN 25349.90036268  .00002473  00000+0  78919-3 0  9993",
        "tle_line2": "2 35717  74.1598 211.7132 0077219  70.2705 290.6758 14.38515087741453"
      },
      "geometry": {
        "type": "Point",
        "coordinates": [
          4.571752930773544,
          55.39851331512985
        ]
      }
    },
    {
      "type": "Feature",
      "properties": {
        "norad_id": 35718,
        "name": "COSMOS 2251 DEB",
        "group": "cosmos-2251-debris",
        "lat": 15.007195537791675,
        "lon": 125.25169355775868,
        "alt_km": 672.2721792560751,
        "timestamp": "2025-12-17T10:52:54.748915+00:00",
        "meta_object_name": "COSMOS 2251 DEB",
        "meta_object_id": "1993-036AQP",
        "meta_epoch": "2025-12-15T17:56:31.598016",
        "meta_mean_motion": 14.68715304,
        "meta_eccentricity": 0.00105684,
        "meta_inclination": 74.0307,
        "meta_ra_of_asc_node": 124.1491,
        "meta_arg_of_pericenter": 172.9967,
        "meta_mean_anomaly": 187.1353,
        "meta_ephemeris_type": 0,
        "meta_classification_type": "U",
        "meta_norad_cat_id": 35718,
        "meta_element_set_no": 999,
        "meta_rev_at_epoch": 65884,
        "meta_bstar": 0.0010586795,
        "meta_mean_motion_dot": 6.146e-05,
        "meta_mean_motion_ddot": 0,
        "tle_line1": "1 35718U 93036AQP 25349.74758794  .00006146  00000+0  10587-2 0  9998",
        "tle_line2": "2 35718  74.0307 124.1491 0010568 172.9967 187.1353 14.68715304658848"
      },
      "geometry": {
        "type": "Point",
        "coordinates": [
          125.25169355775868,
          15.007195537791675
        ]
      }
    },
    {
      "type": "Feature",
      "properties": {
        "norad_id": 35721,
        "name": "COSMOS 2251 DEB",
        "group": "cosmos-2251-debris",
        "lat": 5.666245367899717,
        "lon": -12.573243889307598,
        "alt_km": 859.0547654967149,
        "timestamp": "2025-12-17T10:52:54.748925+00:00",
        "meta_object_name": "COSMOS 2251 DEB",
        "meta_object_id": "1993-036AQS",
        "meta_epoch": "2025-12-09T19:36:39.465216",
        "meta_mean_motion": 14.34317214,
        "meta_eccentricity": 0.01465875,
        "meta_inclination": 73.9489,
        "meta_ra_of_asc_node": 183.1196,
        "meta_arg_of_pericenter": 330.1589,
        "meta_mean_anomaly": 29.126,
        "meta_ephemeris_type": 0,
        "meta_classification_type": "U",
        "meta_norad_cat_id": 35721,
        "meta_element_set_no": 999,
        "meta_rev_at_epoch": 57747,
        "meta_bstar": 0.0018396061,
        "meta_mean_motion_dot": 5.808e-05,
        "meta_mean_motion_ddot": 0,
        "tle_line1": "1 35721U 93036AQS 25343.81712344  .00005808  00000+0  18396-2 0  9995",
        "tle_line2": "2 35721  73.9489 183.1196 0146587 330.1589  29.1260 14.34317214577479"
      },
      "geometry": {
        "type": "Point",
        "coordinates": [
          -12.573243889307598,
          5.666245367899717
        ]
      }
    },
    {
      "type": "Feature",
      "properties": {
        "norad_id": 35724,
        "name": "COSMOS 2251 DEB",
        "group": "cosmos-2251-debris",
        "lat": 17.539637327977495,
        "lon": 108.51714302596557,
        "alt_km": 688.4368780027762,
        "timestamp": "2025-12-17T10:52:54.748935+00:00",
        "meta_object_name": "COSMOS 2251 DEB",
        "meta_object_id": "1993-036AQV",
        "meta_epoch": "2025-12-16T06:09:29.643840",
        "meta_mean_motion": 14.58206767,
        "meta_eccentricity": 0.00589475,
        "meta_inclination": 74.0324,
        "meta_ra_of_asc_node": 295.9861,
        "meta_arg_of_pericenter": 88.6274,
        "meta_mean_anomaly": 272.1643,
        "meta_ephemeris_type": 0,
        "meta_classification_type": "U",
        "meta_norad_cat_id": 35724,
        "meta_element_set_no": 999,
        "meta_rev_at_epoch": 87580,
        "meta_bstar": 0.00025759963,
        "meta_mean_motion_dot": 1.187e-05,
        "meta_mean_motion_ddot": 0,
        "tle_line1": "1 35724U 93036AQV 25350.25659310  .00001187  00000+0  25760-3 0  9997",
        "tle_line2": "2 35724  74.0324 295.9861 0058947  88.6274 272.1643 14.58206767875800"
      },
      "geometry": {
        "type": "Point",
        "coordinates": [
          108.51714302596557,
          17.539637327977495
        ]
      }
    },
    {
      "type": "Feature",
      "properties": {
        "norad_id": 35759,
        "name": "COSMOS 2251 DEB",
        "group": "cosmos-2251-debris",
        "lat": 45.3597464660253,
        "lon": 10.132810302746805,
        "alt_km": 726.4069351936405,
        "timestamp": "2025-12-17T10:52:54.748945+00:00",
        "meta_object_name": "COSMOS 2251 DEB",
        "meta_object_id": "1993-036ARD",
        "meta_epoch": "2025-12-16T22:48:21.857472",
        "meta_mean_motion": 14.649052,
        "meta_eccentricity": 0.00771902,
        "meta_inclination": 74.037,
        "meta_ra_of_asc_node": 207.9493,
        "meta_arg_of_pericenter": 325.1637,
        "meta_mean_anomaly": 34.4491,
        "meta_ephemeris_type": 0,
        "meta_classification_type": "U",
        "meta_norad_cat_id": 35759,
        "meta_element_set_no": 999,
        "meta_rev_at_epoch": 66197,
        "meta_bstar": 0.00021335941,
        "meta_mean_motion_dot": 1.158e-05,
        "meta_mean_motion_ddot": 0,
        "tle_line1": "1 35759U 93036ARD 25350.95025298  .00001158  00000+0  21336-3 0  9997",
        "tle_line2": "2 35759  74.0370 207.9493 0077190 325.1637  34.4491 14.64905200661972"
      },
      "geometry": {
        "type": "Point",
        "coordinates": [
          10.132810302746805,
          45.3597464660253
        ]
      }
    }
  ]
}